1 08820U 76039A   03051.76540813 -.00000000  00000-0  10000-3 0  9104
2 08820 109.8285 141.7417 0044249 326.3252  33.4663  6.38664565369624
